[{"OBJECT_NAME":"UNKNOWN","OBJECT_ID":"","EPOCH":"2026-04-03T01:00:55.979712","MEAN_MOTION":14.0774908,"ECCENTRICITY":0.0134221,"INCLINATION":98.9732,"RA_OF_ASC_NODE":7.8645,"ARG_OF_PERICENTER":286.2466,"MEAN_ANOMALY":72.3972,"EPHEMERIS_TYPE":0,"CLASSIFICATION_TYPE":"U","NORAD_CAT_ID":82642,"ELEMENT_SET_NO":999,"REV_AT_EPOCH":63179,"BSTAR":0.0020329,"MEAN_MOTION_DOT":3.692e-5,"MEAN_MOTION_DDOT":0},{"OBJECT_NAME":"UNKNOWN","OBJECT_ID":"","EPOCH":"2026-04-04T14:51:36.901440","MEAN_MOTION":14.20476706,"ECCENTRICITY":0.0210848,"INCLINATION":98.1555,"RA_OF_ASC_NODE":160.039,"ARG_OF_PERICENTER":65.6002,"MEAN_ANOMALY":296.7021,"EPHEMERIS_TYPE":0,"CLASSIFICATION_TYPE":"U","NORAD_CAT_ID":82683,"ELEMENT_SET_NO":999,"REV_AT_EPOCH":47829,"BSTAR":0.00065686,"MEAN_MOTION_DOT":1.724e-5,"MEAN_MOTION_DDOT":0},{"OBJECT_NAME":"UNKNOWN","OBJECT_ID":"","EPOCH":"2026-04-04T04:26:47.794560","MEAN_MOTION":13.70169601,"ECCENTRICITY":0.0042974,"INCLINATION":100.529,"RA_OF_ASC_NODE":73.0807,"ARG_OF_PERICENTER":100.3362,"MEAN_ANOMALY":260.2629,"EPHEMERIS_TYPE":0,"CLASSIFICATION_TYPE":"U","NORAD_CAT_ID":82693,"ELEMENT_SET_NO":999,"REV_AT_EPOCH":56915,"BSTAR":0.0040919,"MEAN_MOTION_DOT":3.578e-5,"MEAN_MOTION_DDOT":0},{"OBJECT_NAME":"UNKNOWN","OBJECT_ID":"","EPOCH":"2026-04-05T13:54:37.001088","MEAN_MOTION":13.2992382,"ECCENTRICITY":0.0690444,"INCLINATION":61.6086,"RA_OF_ASC_NODE":205.46,"ARG_OF_PERICENTER":331.9668,"MEAN_ANOMALY":24.5693,"EPHEMERIS_TYPE":0,"CLASSIFICATION_TYPE":"U","NORAD_CAT_ID":82698,"ELEMENT_SET_NO":999,"REV_AT_EPOCH":55351,"BSTAR":0.00062623,"MEAN_MOTION_DOT":1.015e-5,"MEAN_MOTION_DDOT":0},{"OBJECT_NAME":"UNKNOWN","OBJECT_ID":"","EPOCH":"2026-03-31T01:54:41.505120","MEAN_MOTION":12.90779777,"ECCENTRICITY":0.0064888,"INCLINATION":102.161,"RA_OF_ASC_NODE":308.7249,"ARG_OF_PERICENTER":62.5614,"MEAN_ANOMALY":298.2057,"EPHEMERIS_TYPE":0,"CLASSIFICATION_TYPE":"U","NORAD_CAT_ID":82708,"ELEMENT_SET_NO":999,"REV_AT_EPOCH":53749,"BSTAR":0.0034481,"MEAN_MOTION_DOT":8.68e-6,"MEAN_MOTION_DDOT":0},{"OBJECT_NAME":"UNKNOWN","OBJECT_ID":"","EPOCH":"2026-04-04T13:55:07.864896","MEAN_MOTION":12.17870007,"ECCENTRICITY":0.0835282,"INCLINATION":67.9711,"RA_OF_ASC_NODE":310.745,"ARG_OF_PERICENTER":293.8433,"MEAN_ANOMALY":57.7215,"EPHEMERIS_TYPE":0,"CLASSIFICATION_TYPE":"U","NORAD_CAT_ID":82729,"ELEMENT_SET_NO":999,"REV_AT_EPOCH":54894,"BSTAR":0.00014194,"MEAN_MOTION_DOT":-1.0e-8,"MEAN_MOTION_DDOT":0},{"OBJECT_NAME":"UNKNOWN","OBJECT_ID":"","EPOCH":"2026-04-03T09:39:30.415968","MEAN_MOTION":13.83005849,"ECCENTRICITY":0.0169793,"INCLINATION":99.0971,"RA_OF_ASC_NODE":250.9783,"ARG_OF_PERICENTER":354.553,"MEAN_ANOMALY":33.6824,"EPHEMERIS_TYPE":0,"CLASSIFICATION_TYPE":"U","NORAD_CAT_ID":82739,"ELEMENT_SET_NO":999,"REV_AT_EPOCH":62154,"BSTAR":0.00071,"MEAN_MOTION_DOT":8.24e-6,"MEAN_MOTION_DDOT":0},{"OBJECT_NAME":"UNKNOWN","OBJECT_ID":"","EPOCH":"2026-04-05T11:48:11.716992","MEAN_MOTION":13.66572312,"ECCENTRICITY":0.0193619,"INCLINATION":102.8409,"RA_OF_ASC_NODE":172.5836,"ARG_OF_PERICENTER":12.3553,"MEAN_ANOMALY":348.223,"EPHEMERIS_TYPE":0,"CLASSIFICATION_TYPE":"U","NORAD_CAT_ID":82741,"ELEMENT_SET_NO":999,"REV_AT_EPOCH":61261,"BSTAR":0.0022351,"MEAN_MOTION_DOT":2.042e-5,"MEAN_MOTION_DDOT":0},{"OBJECT_NAME":"UNKNOWN","OBJECT_ID":"","EPOCH":"2026-04-05T03:21:00.175968","MEAN_MOTION":13.09136599,"ECCENTRICITY":0.0020431,"INCLINATION":90.3477,"RA_OF_ASC_NODE":41.7997,"ARG_OF_PERICENTER":156.6722,"MEAN_ANOMALY":203.5337,"EPHEMERIS_TYPE":0,"CLASSIFICATION_TYPE":"U","NORAD_CAT_ID":82783,"ELEMENT_SET_NO":999,"REV_AT_EPOCH":51919,"BSTAR":0.0047487,"MEAN_MOTION_DOT":1.638e-5,"MEAN_MOTION_DDOT":0},{"OBJECT_NAME":"UNKNOWN","OBJECT_ID":"","EPOCH":"2026-03-31T23:23:27.056544","MEAN_MOTION":14.35883151,"ECCENTRICITY":0.0048489,"INCLINATION":99.7965,"RA_OF_ASC_NODE":271.3382,"ARG_OF_PERICENTER":64.9555,"MEAN_ANOMALY":295.665,"EPHEMERIS_TYPE":0,"CLASSIFICATION_TYPE":"U","NORAD_CAT_ID":82820,"ELEMENT_SET_NO":999,"REV_AT_EPOCH":64130,"BSTAR":0.0012861,"MEAN_MOTION_DOT":3.726e-5,"MEAN_MOTION_DDOT":0},{"OBJECT_NAME":"UNKNOWN","OBJECT_ID":"","EPOCH":"2026-03-25T11:43:14.890656","MEAN_MOTION":11.29179881,"ECCENTRICITY":0.0175129,"INCLINATION":65.0952,"RA_OF_ASC_NODE":253.4585,"ARG_OF_PERICENTER":314.9407,"MEAN_ANOMALY":65.8445,"EPHEMERIS_TYPE":0,"CLASSIFICATION_TYPE":"U","NORAD_CAT_ID":82829,"ELEMENT_SET_NO":999,"REV_AT_EPOCH":49768,"BSTAR":0.0069735,"MEAN_MOTION_DOT":2.1e-6,"MEAN_MOTION_DDOT":0},{"OBJECT_NAME":"UNKNOWN","OBJECT_ID":"","EPOCH":"2026-03-30T22:53:30.091200","MEAN_MOTION":13.88258393,"ECCENTRICITY":0.0131046,"INCLINATION":82.6921,"RA_OF_ASC_NODE":339.7053,"ARG_OF_PERICENTER":335.3291,"MEAN_ANOMALY":24.1638,"EPHEMERIS_TYPE":0,"CLASSIFICATION_TYPE":"U","NORAD_CAT_ID":82854,"ELEMENT_SET_NO":999,"REV_AT_EPOCH":62281,"BSTAR":0.0017411,"MEAN_MOTION_DOT":2.243e-5,"MEAN_MOTION_DDOT":0},{"OBJECT_NAME":"UNKNOWN","OBJECT_ID":"","EPOCH":"2026-04-02T04:56:52.661184","MEAN_MOTION":14.25334886,"ECCENTRICITY":0.0039873,"INCLINATION":99.9947,"RA_OF_ASC_NODE":6.5532,"ARG_OF_PERICENTER":338.4148,"MEAN_ANOMALY":21.5345,"EPHEMERIS_TYPE":0,"CLASSIFICATION_TYPE":"U","NORAD_CAT_ID":82873,"ELEMENT_SET_NO":999,"REV_AT_EPOCH":63696,"BSTAR":0.0020188,"MEAN_MOTION_DOT":4.743e-5,"MEAN_MOTION_DDOT":0},{"OBJECT_NAME":"UNKNOWN","OBJECT_ID":"","EPOCH":"2026-04-01T04:47:31.461216","MEAN_MOTION":14.15376682,"ECCENTRICITY":0.0376718,"INCLINATION":98.6894,"RA_OF_ASC_NODE":76.9418,"ARG_OF_PERICENTER":329.1838,"MEAN_ANOMALY":28.7696,"EPHEMERIS_TYPE":0,"CLASSIFICATION_TYPE":"U","NORAD_CAT_ID":82875,"ELEMENT_SET_NO":999,"REV_AT_EPOCH":55995,"BSTAR":0.00035534,"MEAN_MOTION_DOT":1.326e-5,"MEAN_MOTION_DDOT":0},{"OBJECT_NAME":"UNKNOWN","OBJECT_ID":"","EPOCH":"2026-04-04T14:28:42.123648","MEAN_MOTION":14.3382133,"ECCENTRICITY":0.0023979,"INCLINATION":98.9628,"RA_OF_ASC_NODE":218.5078,"ARG_OF_PERICENTER":83.0871,"MEAN_ANOMALY":277.3039,"EPHEMERIS_TYPE":0,"CLASSIFICATION_TYPE":"U","NORAD_CAT_ID":82893,"ELEMENT_SET_NO":999,"REV_AT_EPOCH":44013,"BSTAR":0.0043999,"MEAN_MOTION_DOT":0.00012254,"MEAN_MOTION_DDOT":0},{"OBJECT_NAME":"UNKNOWN","OBJECT_ID":"","EPOCH":"2026-04-04T05:29:30.136992","MEAN_MOTION":13.28514923,"ECCENTRICITY":0.0769394,"INCLINATION":65.8339,"RA_OF_ASC_NODE":274.8549,"ARG_OF_PERICENTER":217.7657,"MEAN_ANOMALY":136.695,"EPHEMERIS_TYPE":0,"CLASSIFICATION_TYPE":"U","NORAD_CAT_ID":82912,"ELEMENT_SET_NO":999,"REV_AT_EPOCH":59426,"BSTAR":0.0018223,"MEAN_MOTION_DOT":4.382e-5,"MEAN_MOTION_DDOT":0},{"OBJECT_NAME":"UNKNOWN","OBJECT_ID":"","EPOCH":"2026-04-05T04:07:40.606464","MEAN_MOTION":13.26734208,"ECCENTRICITY":0.0397281,"INCLINATION":99.8187,"RA_OF_ASC_NODE":248.8565,"ARG_OF_PERICENTER":102.2558,"MEAN_ANOMALY":262.3336,"EPHEMERIS_TYPE":0,"CLASSIFICATION_TYPE":"U","NORAD_CAT_ID":82961,"ELEMENT_SET_NO":999,"REV_AT_EPOCH":57073,"BSTAR":0.016458,"MEAN_MOTION_DOT":0.00011198,"MEAN_MOTION_DDOT":0}]
